IRIDIUM 166             
1 43570U 18061B   25312.47766691  .00000006  00000+0 -49684-5 0  9996
2 43570  86.3978 149.0191 0001846  92.6735 267.4672 14.34217509381763
IRIDIUM 158             
1 43571U 18061C   25312.51572404  .00000083  00000+0  22527-4 0  9999
2 43571  86.3974 149.0134 0002018  80.5747 279.5676 14.34219174381733
IRIDIUM 165             
1 43572U 18061D   25312.47132631  .00000137  00000+0  41717-4 0  9991
2 43572  86.3973 149.0737 0002038  91.1606 268.9823 14.34217779381753
IRIDIUM 155             
1 43573U 18061E   25312.78210166  .00000122  00000+0  36519-4 0  9994
2 43573  86.3970 148.8241 0001834  84.5952 275.5453 14.34217405381761
IRIDIUM 154             
1 43574U 18061F   25312.48400985  .00000006  00000+0 -48853-5 0  9999
2 43574  86.3979 149.0709 0001987  88.3204 271.8219 14.34217570381777
IRIDIUM 163             
1 43575U 18061G   25312.25567655  .00000029  00000+0  32051-5 0  9990
2 43575  86.3970 149.0890 0002179  84.5824 275.5621 14.34217539381717
IRIDIUM 156             
1 43576U 18061H   25312.78845315  .00000041  00000+0  76990-5 0  9995
2 43576  86.3971 148.8734 0001787  87.3876 272.7524 14.34217920381787
IRIDIUM 164             
1 43577U 18061J   25312.56012162 -.00000034  00000+0 -19051-4 0  9996
2 43577  86.3975 149.0053 0001931  93.9978 266.1439 14.34217069381793
